{"type": "FeatureCollection", "features": [ {"type": "Feature", "properties": {"norad_id": 66948, "name": "STARLINK-36116", "group": "last-30-days", "lat": 16.353846869224622, "lon": 178.13130724417863, "alt_km": 340.4976819508038, "timestamp": "2025-12-20T14:38:00.691117+00:00", "meta": {"OBJECT_NAME": "STARLINK-36116", "OBJECT_ID": "2025-286Z", "EPOCH": "2025-12-20T06:00:02.999808", "MEAN_MOTION": 15.77117371, "ECCENTRICITY": 9.061e-05, "INCLINATION": 53.1554, "RA_OF_ASC_NODE": 12.6344, "ARG_OF_PERICENTER": 84.6271, "MEAN_ANOMALY": 192.0733, "EPHEMERIS_TYPE": 0, "CLASSIFICATION_TYPE": "U", "NORAD_CAT_ID": 66948, "ELEMENT_SET_NO": 999, "REV_AT_EPOCH": 319, "BSTAR": -0.010706373, "MEAN_MOTION_DOT": -0.01560793, "MEAN_MOTION_DDOT": 0}, "tle": {"line1": "1 66948U 25286Z   25354.25003472 -.01560793  00000+0 -10706-1 0  9995", "line2": "2 66948  53.1554  12.6344 0000906  84.6271 192.0733 15.77117371  3199"}}, "geometry": {"type": "Point", "coordinates": [178.13130724417863, 16.353846869224622]}}, {"type": "Feature", "properties": {"norad_id": 66949, "name": "STARLINK-36096", "group": "last-30-days", "lat": 13.245601380506375, "lon": -179.33186828501567, "alt_km": 341.0589950264948, "timestamp": "2025-12-20T14:38:00.691129+00:00", "meta": {"OBJECT_NAME": "STARLINK-36096", "OBJECT_ID": "2025-286AA", "EPOCH": "2025-12-20T06:00:02.999808", "MEAN_MOTION": 15.77068983, "ECCENTRICITY": 0.00010006, "INCLINATION": 53.1555, "RA_OF_ASC_NODE": 12.6261, "ARG_OF_PERICENTER": 94.1898, "MEAN_ANOMALY": 186.5423, "EPHEMERIS_TYPE": 0, "CLASSIFICATION_TYPE": "U", "NORAD_CAT_ID": 66949, "ELEMENT_SET_NO": 999, "REV_AT_EPOCH": 319, "BSTAR": -0.010836702, "MEAN_MOTION_DOT": -0.01574419, "MEAN_MOTION_DDOT": 0}, "tle": {"line1": "1 66949U 25286AA  25354.25003472 -.01574419  00000+0 -10837-1 0  9991", "line2": "2 66949  53.1555  12.6261 0001000  94.1898 186.5423 15.77068983  3194"}}, "geometry": {"type": "Point", "coordinates": [-179.33186828501567, 13.245601380506375]}}, {"type": "Feature", "properties": {"norad_id": 66950, "name": "STARLINK-36111", "group": "last-30-days", "lat": 10.081455182671744, "lon": -176.83518655538452, "alt_km": 342.0320796723063, "timestamp": "2025-12-20T14:38:00.691141+00:00", "meta": {"OBJECT_NAME": "STARLINK-36111", "OBJECT_ID": "2025-286AB", "EPOCH": "2025-12-20T06:00:02.999808", "MEAN_MOTION": 15.76999058, "ECCENTRICITY": 0.00012017, "INCLINATION": 53.1557, "RA_OF_ASC_NODE": 12.6176, "ARG_OF_PERICENTER": 85.0091, "MEAN_ANOMALY": 199.8181, "EPHEMERIS_TYPE": 0, "CLASSIFICATION_TYPE": "U", "NORAD_CAT_ID": 66950, "ELEMENT_SET_NO": 999, "REV_AT_EPOCH": 319, "BSTAR": -0.010965632, "MEAN_MOTION_DOT": -0.0158651, "MEAN_MOTION_DDOT": 0}, "tle": {"line1": "1 66950U 25286AB  25354.25003472 -.01586510  00000+0 -10966-1 0  9991", "line2": "2 66950  53.1557  12.6176 0001201  85.0091 199.8181 15.76999058  3193"}}, "geometry": {"type": "Point", "coordinates": [-176.83518655538452, 10.081455182671744]}}, {"type": "Feature", "properties": {"norad_id": 66951, "name": "STARLINK-35999", "group": "last-30-days", "lat": 8.477719877735638, "lon": -175.5955764356184, "alt_km": 342.43213125779494, "timestamp": "2025-12-20T14:38:00.691152+00:00", "meta": {"OBJECT_NAME": "STARLINK-35999", "OBJECT_ID": "2025-286AC", "EPOCH": "2025-12-20T06:00:02.999808", "MEAN_MOTION": 15.76956954, "ECCENTRICITY": 0.00010232, "INCLINATION": 53.1558, "RA_OF_ASC_NODE": 12.6129, "ARG_OF_PERICENTER": 89.0915, "MEAN_ANOMALY": 197.8186, "EPHEMERIS_TYPE": 0, "CLASSIFICATION_TYPE": "U", "NORAD_CAT_ID": 66951, "ELEMENT_SET_NO": 999, "REV_AT_EPOCH": 319, "BSTAR": -0.011085801, "MEAN_MOTION_DOT": -0.01630516, "MEAN_MOTION_DDOT": 0}, "tle": {"line1": "1 66951U 25286AC  25354.25003472 -.01630516  00000+0 -11086-1 0  9992", "line2": "2 66951  53.1558  12.6129 0001023  89.0915 197.8186 15.76956954  3195"}}, "geometry": {"type": "Point", "coordinates": [-175.5955764356184, 8.477719877735638]}}, {"type": "Feature", "properties": {"norad_id": 66952, "name": "STARLINK-36122", "group": "last-30-days", "lat": 11.66057809334262, "lon": -178.07184514427092, "alt_km": 341.703893529314, "timestamp": "2025-12-20T14:38:00.691162+00:00", "meta": {"OBJECT_NAME": "STARLINK-36122", "OBJECT_ID": "2025-286AD", "EPOCH": "2025-12-20T06:00:02.999808", "MEAN_MOTION": 15.77032698, "ECCENTRICITY": 0.0001064, "INCLINATION": 53.1556, "RA_OF_ASC_NODE": 12.6219, "ARG_OF_PERICENTER": 82.6307, "MEAN_ANOMALY": 200.1586, "EPHEMERIS_TYPE": 0, "CLASSIFICATION_TYPE": "U", "NORAD_CAT_ID": 66952, "ELEMENT_SET_NO": 999, "REV_AT_EPOCH": 319, "BSTAR": -0.010918064, "MEAN_MOTION_DOT": -0.01582501, "MEAN_MOTION_DDOT": 0}, "tle": {"line1": "1 66952U 25286AD  25354.25003472 -.01582501  00000+0 -10918-1 0  9996", "line2": "2 66952  53.1556  12.6219 0001064  82.6307 200.1586 15.77032698  3196"}}, "geometry": {"type": "Point", "coordinates": [-178.07184514427092, 11.66057809334262]}}, {"type": "Feature", "properties": {"norad_id": 66953, "name": "HULIANWANG DIGUI-114", "group": "last-30-days", "lat": 49.19646551906234, "lon": -12.644190219784905, "alt_km": 1008.864868387649, "timestamp": "2025-12-20T14:38:00.691174+00:00", "meta": {"OBJECT_NAME": "HULIANWANG DIGUI-114", "OBJECT_ID": "2025-287A", "EPOCH": "2025-12-18T14:58:33.375360", "MEAN_MOTION": 13.67416524, "ECCENTRICITY": 0.00087038, "INCLINATION": 86.4968, "RA_OF_ASC_NODE": 344.0089, "ARG_OF_PERICENTER": 188.5983, "MEAN_ANOMALY": 171.5028, "EPHEMERIS_TYPE": 0, "CLASSIFICATION_TYPE": "U", "NORAD_CAT_ID": 66953, "ELEMENT_SET_NO": 999, "REV_AT_EPOCH": 133, "BSTAR": 1.0869035e-05, "MEAN_MOTION_DOT": 2.6e-07, "MEAN_MOTION_DDOT": 0}, "tle": {"line1": "1 66953U 25287A   25352.62399740  .00000026  00000+0  10869-4 0  9995", "line2": "2 66953  86.4968 344.0089 0008703 188.5983 171.5028 13.67416524  1330"}}, "geometry": {"type": "Point", "coordinates": [-12.644190219784905, 49.19646551906234]}}, {"type": "Feature", "properties": {"norad_id": 66954, "name": "HULIANWANG DIGUI-115", "group": "last-30-days", "lat": 53.64181468987502, "lon": -11.936668836264559, "alt_km": 1007.4605759415281, "timestamp": "2025-12-20T14:38:00.691184+00:00", "meta": {"OBJECT_NAME": "HULIANWANG DIGUI-115", "OBJECT_ID": "2025-287B", "EPOCH": "2025-12-18T14:57:30.566880", "MEAN_MOTION": 13.67541232, "ECCENTRICITY": 0.00089471, "INCLINATION": 86.4978, "RA_OF_ASC_NODE": 344.0137, "ARG_OF_PERICENTER": 187.4507, "MEAN_ANOMALY": 172.652, "EPHEMERIS_TYPE": 0, "CLASSIFICATION_TYPE": "U", "NORAD_CAT_ID": 66954, "ELEMENT_SET_NO": 999, "REV_AT_EPOCH": 133, "BSTAR": 1.0944943e-05, "MEAN_MOTION_DOT": 2.6e-07, "MEAN_MOTION_DDOT": 0}, "tle": {"line1": "1 66954U 25287B   25352.62327045  .00000026  00000+0  10945-4 0  9990", "line2": "2 66954  86.4978 344.0137 0008947 187.4507 172.6520 13.67541232  1330"}}, "geometry": {"type": "Point", "coordinates": [-11.936668836264559, 53.64181468987502]}}, {"type": "Feature", "properties": {"norad_id": 66955, "name": "HULIANWANG DIGUI-116", "group": "last-30-days", "lat": 58.386683975566214, "lon": -10.998999028721464, "alt_km": 1005.231265377106, "timestamp": "2025-12-20T14:38:00.691194+00:00", "meta": {"OBJECT_NAME": "HULIANWANG DIGUI-116", "OBJECT_ID": "2025-287C", "EPOCH": "2025-12-18T14:56:21.725088", "MEAN_MOTION": 13.67658665, "ECCENTRICITY": 0.00085044, "INCLINATION": 86.4902, "RA_OF_ASC_NODE": 344.003, "ARG_OF_PERICENTER": 181.1085, "MEAN_ANOMALY": 179.0056, "EPHEMERIS_TYPE": 0, "CLASSIFICATION_TYPE": "U", "NORAD_CAT_ID": 66955, "ELEMENT_SET_NO": 999, "REV_AT_EPOCH": 133, "BSTAR": 0.00014472334, "MEAN_MOTION_DOT": 1.39e-06, "MEAN_MOTION_DDOT": 0}, "tle": {"line1": "1 66955U 25287C   25352.62247367  .00000139  00000+0  14472-3 0  9992", "line2": "2 66955  86.4902 344.0030 0008504 181.1085 179.0056 13.67658665  1335"}}, "geometry": {"type": "Point", "coordinates": [-10.998999028721464, 58.386683975566214]}}, {"type": "Feature", "properties": {"norad_id": 66956, "name": "HULIANWANG DIGUI-117", "group": "last-30-days", "lat": 63.1305506046273, "lon": -9.767113890542037, "alt_km": 1003.1705657990442, "timestamp": "2025-12-20T14:38:00.691223+00:00", "meta": {"OBJECT_NAME": "HULIANWANG DIGUI-117", "OBJECT_ID": "2025-287D", "EPOCH": "2025-12-18T14:55:12.079776", "MEAN_MOTION": 13.67770338, "ECCENTRICITY": 0.00076767, "INCLINATION": 86.4971, "RA_OF_ASC_NODE": 344.0126, "ARG_OF_PERICENTER": 176.3616, "MEAN_ANOMALY": 183.76, "EPHEMERIS_TYPE": 0, "CLASSIFICATION_TYPE": "U", "NORAD_CAT_ID": 66956, "ELEMENT_SET_NO": 999, "REV_AT_EPOCH": 133, "BSTAR": 1.0922436e-05, "MEAN_MOTION_DOT": 2.6e-07, "MEAN_MOTION_DDOT": 0}, "tle": {"line1": "1 66956U 25287D   25352.62166759  .00000026  00000+0  10922-4 0  9990", "line2": "2 66956  86.4971 344.0126 0007676 176.3616 183.7600 13.67770338  1332"}}, "geometry": {"type": "Point", "coordinates": [-9.767113890542037, 63.1305506046273]}}, {"type": "Feature", "properties": {"norad_id": 66957, "name": "HULIANWANG DIGUI-118", "group": "last-30-days", "lat": 67.94157107834172, "lon": -8.019822684337056, "alt_km": 1001.8132349611378, "timestamp": "2025-12-20T14:38:00.691235+00:00", "meta": {"OBJECT_NAME": "HULIANWANG DIGUI-118", "OBJECT_ID": "2025-287E", "EPOCH": "2025-12-19T17:14:01.622976", "MEAN_MOTION": 13.67870424, "ECCENTRICITY": 0.00073636, "INCLINATION": 86.4967, "RA_OF_ASC_NODE": 343.6097, "ARG_OF_PERICENTER": 172.7883, "MEAN_ANOMALY": 187.3383, "EPHEMERIS_TYPE": 0, "CLASSIFICATION_TYPE": "U", "NORAD_CAT_ID": 66957, "ELEMENT_SET_NO": 999, "REV_AT_EPOCH": 148, "BSTAR": 0.00013028429, "MEAN_MOTION_DOT": 1.27e-06, "MEAN_MOTION_DDOT": 0}, "tle": {"line1": "1 66957U 25287E   25353.71807434  .00000127  00000+0  13028-3 0  9995", "line2": "2 66957  86.4967 343.6097 0007363 172.7883 187.3383 13.67870424  1480"}}, "geometry": {"type": "Point", "coordinates": [-8.019822684337056, 67.94157107834172]}}]}